APRIZESAT 2             
1 28366U 04025A   26065.02684303  .00000413  00000+0  14128-3 0  9997
2 28366  98.0904 236.8986 0105249 200.9072 158.7797 14.37984837136817
SAUDICOMSAT 1           
1 28369U 04025D   26065.30621725  .00000722  00000+0  17657-3 0  9993
2 28369  98.5810  72.6496 0031770 340.7898  19.2099 14.55384339149168
SAUDICOMSAT 2           
1 28370U 04025E   26065.23406107  .00000454  00000+0  12798-3 0  9995
2 28370  98.6686  74.5539 0055020 210.4380 149.3615 14.49906038145180
APRIZESAT 1             
1 28372U 04025G   26065.25553433  .00000431  00000+0  11789-3 0  9998
2 28372  98.6345  73.1628 0045800 107.7604 252.8596 14.51711764146979
NANOSAT-1               
1 28493U 04049B   26065.27236986  .00001997  00000+0  27190-3 0  9992
2 28493  98.2093 199.5334 0002840 260.1050  99.9840 14.79908064140227
SAUDICOMSAT 7           
1 31119U 07012C   26064.91696546  .00000847  00000+0  16077-3 0  9991
2 31119  98.3674  37.0065 0056231 158.8754 201.4789 14.65963004  7309
SAUDICOMSAT 6           
1 31121U 07012E   26064.84915572  .00001202  00000+0  23943-3 0  9995
2 31121  98.3983  30.5227 0070721 288.9862  70.3685 14.62423874  5082
SAUDICOMSAT 5           
1 31124U 07012H   26065.23836500  .00001285  00000+0  22944-3 0  9996
2 31124  98.3388  38.1009 0048850  89.5092 271.1709 14.67994188  8496
SAUDICOMSAT 3           
1 31125U 07012J   26064.96775584  .00001555  00000+0  26194-3 0  9991
2 31125  98.3044  38.3856 0039800  20.2465 340.0308 14.70512127  9652
SAUDICOMSAT 4           
1 31127U 07012L   26065.18784266  .00000807  00000+0  15839-3 0  9998
2 31127  98.3878  35.7335 0062660 219.3561 140.3080 14.64371640  6213
APRIZESAT 4             
1 35684U 09041D   26065.14798102  .00001000  00000+0  12625-3 0  9990
2 35684  98.1492 138.3975 0042211 296.5139  63.1748 14.83699785896082
APRIZESAT 3             
1 35686U 09041F   26065.23293065  .00002855  00000+0  25114-3 0  9996
2 35686  98.1896 213.6384 0063166  48.0396 312.6181 14.95885926900985
S-NET D                 
1 43186U 18014G   26065.24132288  .00006686  00000+0  35548-3 0  9998
2 43186  97.5439 330.7130 0009199  26.4573 333.7127 15.15571376443168
S-NET B                 
1 43187U 18014H   26065.25081654  .00006883  00000+0  36607-3 0  9996
2 43187  97.5446 330.7057 0009722  21.6200 338.5441 15.15545211443162
S-NET A                 
1 43188U 18014J   26065.24068483  .00006743  00000+0  35836-3 0  9999
2 43188  97.5456 330.8856 0009635  22.1214 338.0432 15.15578096443168
S-NET C                 
1 43189U 18014K   26065.25414539  .00006998  00000+0  37212-3 0  9990
2 43189  97.5473 330.9577 0010785  13.9608 346.1920 15.15537854441710
SALSAT                  
1 46495U 20068K   26064.94066432  .00011056  00000+0  40601-3 0  9992
2 46495  97.8854  61.8531 0008538 312.5830  47.4688 15.28092628299584
