[{"OBJECT_NAME":"APRIZESAT 2","OBJECT_ID":"2004-025A","EPOCH":"2026-03-06T00:38:39.237792","MEAN_MOTION":14.37984837,"ECCENTRICITY":0.01052495,"INCLINATION":98.0904,"RA_OF_ASC_NODE":236.8986,"ARG_OF_PERICENTER":200.9072,"MEAN_ANOMALY":158.7797,"EPHEMERIS_TYPE":0,"CLASSIFICATION_TYPE":"U","NORAD_CAT_ID":28366,"ELEMENT_SET_NO":999,"REV_AT_EPOCH":13681,"BSTAR":0.00014127614,"MEAN_MOTION_DOT":4.13e-6,"MEAN_MOTION_DDOT":0},{"OBJECT_NAME":"SAUDICOMSAT 1","OBJECT_ID":"2004-025D","EPOCH":"2026-03-06T07:20:57.170400","MEAN_MOTION":14.55384339,"ECCENTRICITY":0.00317703,"INCLINATION":98.581,"RA_OF_ASC_NODE":72.6496,"ARG_OF_PERICENTER":340.7898,"MEAN_ANOMALY":19.2099,"EPHEMERIS_TYPE":0,"CLASSIFICATION_TYPE":"U","NORAD_CAT_ID":28369,"ELEMENT_SET_NO":999,"REV_AT_EPOCH":14916,"BSTAR":0.00017656824,"MEAN_MOTION_DOT":7.22e-6,"MEAN_MOTION_DDOT":0},{"OBJECT_NAME":"SAUDICOMSAT 2","OBJECT_ID":"2004-025E","EPOCH":"2026-03-06T05:37:02.876448","MEAN_MOTION":14.49906038,"ECCENTRICITY":0.00550202,"INCLINATION":98.6686,"RA_OF_ASC_NODE":74.5539,"ARG_OF_PERICENTER":210.438,"MEAN_ANOMALY":149.3615,"EPHEMERIS_TYPE":0,"CLASSIFICATION_TYPE":"U","NORAD_CAT_ID":28370,"ELEMENT_SET_NO":999,"REV_AT_EPOCH":14518,"BSTAR":0.00012798406,"MEAN_MOTION_DOT":4.54e-6,"MEAN_MOTION_DDOT":0},{"OBJECT_NAME":"APRIZESAT 1","OBJECT_ID":"2004-025G","EPOCH":"2026-03-06T06:07:58.166112","MEAN_MOTION":14.51711764,"ECCENTRICITY":0.00458004,"INCLINATION":98.6345,"RA_OF_ASC_NODE":73.1628,"ARG_OF_PERICENTER":107.7604,"MEAN_ANOMALY":252.8596,"EPHEMERIS_TYPE":0,"CLASSIFICATION_TYPE":"U","NORAD_CAT_ID":28372,"ELEMENT_SET_NO":999,"REV_AT_EPOCH":14697,"BSTAR":0.00011788759,"MEAN_MOTION_DOT":4.31e-6,"MEAN_MOTION_DDOT":0},{"OBJECT_NAME":"NANOSAT-1","OBJECT_ID":"2004-049B","EPOCH":"2026-03-06T06:32:12.755904","MEAN_MOTION":14.79908064,"ECCENTRICITY":0.00028401,"INCLINATION":98.2093,"RA_OF_ASC_NODE":199.5334,"ARG_OF_PERICENTER":260.105,"MEAN_ANOMALY":99.984,"EPHEMERIS_TYPE":0,"CLASSIFICATION_TYPE":"U","NORAD_CAT_ID":28493,"ELEMENT_SET_NO":999,"REV_AT_EPOCH":14022,"BSTAR":0.00027189936,"MEAN_MOTION_DOT":1.997e-5,"MEAN_MOTION_DDOT":0},{"OBJECT_NAME":"SAUDICOMSAT 7","OBJECT_ID":"2007-012C","EPOCH":"2026-03-05T22:00:25.815744","MEAN_MOTION":14.65963004,"ECCENTRICITY":0.00562317,"INCLINATION":98.3674,"RA_OF_ASC_NODE":37.0065,"ARG_OF_PERICENTER":158.8754,"MEAN_ANOMALY":201.4789,"EPHEMERIS_TYPE":0,"CLASSIFICATION_TYPE":"U","NORAD_CAT_ID":31119,"ELEMENT_SET_NO":999,"REV_AT_EPOCH":730,"BSTAR":0.00016076668,"MEAN_MOTION_DOT":8.47e-6,"MEAN_MOTION_DDOT":0},{"OBJECT_NAME":"SAUDICOMSAT 6","OBJECT_ID":"2007-012E","EPOCH":"2026-03-05T20:22:47.054208","MEAN_MOTION":14.62423874,"ECCENTRICITY":0.00707211,"INCLINATION":98.3983,"RA_OF_ASC_NODE":30.5227,"ARG_OF_PERICENTER":288.9862,"MEAN_ANOMALY":70.3685,"EPHEMERIS_TYPE":0,"CLASSIFICATION_TYPE":"U","NORAD_CAT_ID":31121,"ELEMENT_SET_NO":999,"REV_AT_EPOCH":508,"BSTAR":0.00023942846,"MEAN_MOTION_DOT":1.202e-5,"MEAN_MOTION_DDOT":0},{"OBJECT_NAME":"SAUDICOMSAT 5","OBJECT_ID":"2007-012H","EPOCH":"2026-03-06T05:43:14.736000","MEAN_MOTION":14.67994188,"ECCENTRICITY":0.00488506,"INCLINATION":98.3388,"RA_OF_ASC_NODE":38.1009,"ARG_OF_PERICENTER":89.5092,"MEAN_ANOMALY":271.1709,"EPHEMERIS_TYPE":0,"CLASSIFICATION_TYPE":"U","NORAD_CAT_ID":31124,"ELEMENT_SET_NO":999,"REV_AT_EPOCH":849,"BSTAR":0.00022943905,"MEAN_MOTION_DOT":1.285e-5,"MEAN_MOTION_DDOT":0},{"OBJECT_NAME":"SAUDICOMSAT 3","OBJECT_ID":"2007-012J","EPOCH":"2026-03-05T23:13:34.104576","MEAN_MOTION":14.70512127,"ECCENTRICITY":0.00398003,"INCLINATION":98.3044,"RA_OF_ASC_NODE":38.3856,"ARG_OF_PERICENTER":20.2465,"MEAN_ANOMALY":340.0308,"EPHEMERIS_TYPE":0,"CLASSIFICATION_TYPE":"U","NORAD_CAT_ID":31125,"ELEMENT_SET_NO":999,"REV_AT_EPOCH":965,"BSTAR":0.00026194191,"MEAN_MOTION_DOT":1.555e-5,"MEAN_MOTION_DDOT":0},{"OBJECT_NAME":"SAUDICOMSAT 4","OBJECT_ID":"2007-012L","EPOCH":"2026-03-06T04:30:29.605824","MEAN_MOTION":14.6437164,"ECCENTRICITY":0.00626603,"INCLINATION":98.3878,"RA_OF_ASC_NODE":35.7335,"ARG_OF_PERICENTER":219.3561,"MEAN_ANOMALY":140.308,"EPHEMERIS_TYPE":0,"CLASSIFICATION_TYPE":"U","NORAD_CAT_ID":31127,"ELEMENT_SET_NO":999,"REV_AT_EPOCH":621,"BSTAR":0.00015838528,"MEAN_MOTION_DOT":8.07e-6,"MEAN_MOTION_DDOT":0},{"OBJECT_NAME":"APRIZESAT 4","OBJECT_ID":"2009-041D","EPOCH":"2026-03-06T03:33:05.560128","MEAN_MOTION":14.83699785,"ECCENTRICITY":0.00422118,"INCLINATION":98.1492,"RA_OF_ASC_NODE":138.3975,"ARG_OF_PERICENTER":296.5139,"MEAN_ANOMALY":63.1748,"EPHEMERIS_TYPE":0,"CLASSIFICATION_TYPE":"U","NORAD_CAT_ID":35684,"ELEMENT_SET_NO":999,"REV_AT_EPOCH":89608,"BSTAR":0.00012624797,"MEAN_MOTION_DOT":1.0e-5,"MEAN_MOTION_DDOT":0},{"OBJECT_NAME":"APRIZESAT 3","OBJECT_ID":"2009-041F","EPOCH":"2026-03-06T05:35:25.208160","MEAN_MOTION":14.95885926,"ECCENTRICITY":0.00631661,"INCLINATION":98.1896,"RA_OF_ASC_NODE":213.6384,"ARG_OF_PERICENTER":48.0396,"MEAN_ANOMALY":312.6181,"EPHEMERIS_TYPE":0,"CLASSIFICATION_TYPE":"U","NORAD_CAT_ID":35686,"ELEMENT_SET_NO":999,"REV_AT_EPOCH":90098,"BSTAR":0.00025113987,"MEAN_MOTION_DOT":2.855e-5,"MEAN_MOTION_DDOT":0},{"OBJECT_NAME":"S-NET D","OBJECT_ID":"2018-014G","EPOCH":"2026-03-06T05:47:30.296832","MEAN_MOTION":15.15571376,"ECCENTRICITY":0.00091992,"INCLINATION":97.5439,"RA_OF_ASC_NODE":330.713,"ARG_OF_PERICENTER":26.4573,"MEAN_ANOMALY":333.7127,"EPHEMERIS_TYPE":0,"CLASSIFICATION_TYPE":"U","NORAD_CAT_ID":43186,"ELEMENT_SET_NO":999,"REV_AT_EPOCH":44316,"BSTAR":0.00035548322,"MEAN_MOTION_DOT":6.686e-5,"MEAN_MOTION_DDOT":0},{"OBJECT_NAME":"S-NET B","OBJECT_ID":"2018-014H","EPOCH":"2026-03-06T06:01:10.549056","MEAN_MOTION":15.15545211,"ECCENTRICITY":0.00097226,"INCLINATION":97.5446,"RA_OF_ASC_NODE":330.7057,"ARG_OF_PERICENTER":21.62,"MEAN_ANOMALY":338.5441,"EPHEMERIS_TYPE":0,"CLASSIFICATION_TYPE":"U","NORAD_CAT_ID":43187,"ELEMENT_SET_NO":999,"REV_AT_EPOCH":44316,"BSTAR":0.00036607405,"MEAN_MOTION_DOT":6.883e-5,"MEAN_MOTION_DDOT":0},{"OBJECT_NAME":"S-NET A","OBJECT_ID":"2018-014J","EPOCH":"2026-03-06T05:46:35.169312","MEAN_MOTION":15.15578096,"ECCENTRICITY":0.00096353,"INCLINATION":97.5456,"RA_OF_ASC_NODE":330.8856,"ARG_OF_PERICENTER":22.1214,"MEAN_ANOMALY":338.0432,"EPHEMERIS_TYPE":0,"CLASSIFICATION_TYPE":"U","NORAD_CAT_ID":43188,"ELEMENT_SET_NO":999,"REV_AT_EPOCH":44316,"BSTAR":0.0003583592,"MEAN_MOTION_DOT":6.743e-5,"MEAN_MOTION_DDOT":0},{"OBJECT_NAME":"S-NET C","OBJECT_ID":"2018-014K","EPOCH":"2026-03-06T06:05:58.161696","MEAN_MOTION":15.15537854,"ECCENTRICITY":0.00107851,"INCLINATION":97.5473,"RA_OF_ASC_NODE":330.9577,"ARG_OF_PERICENTER":13.9608,"MEAN_ANOMALY":346.192,"EPHEMERIS_TYPE":0,"CLASSIFICATION_TYPE":"U","NORAD_CAT_ID":43189,"ELEMENT_SET_NO":999,"REV_AT_EPOCH":44171,"BSTAR":0.00037211649,"MEAN_MOTION_DOT":6.998e-5,"MEAN_MOTION_DDOT":0},{"OBJECT_NAME":"SALSAT","OBJECT_ID":"2020-068K","EPOCH":"2026-03-05T22:34:33.397248","MEAN_MOTION":15.28092628,"ECCENTRICITY":0.00085381,"INCLINATION":97.8854,"RA_OF_ASC_NODE":61.8531,"ARG_OF_PERICENTER":312.583,"MEAN_ANOMALY":47.4688,"EPHEMERIS_TYPE":0,"CLASSIFICATION_TYPE":"U","NORAD_CAT_ID":46495,"ELEMENT_SET_NO":999,"REV_AT_EPOCH":29958,"BSTAR":0.00040601098,"MEAN_MOTION_DOT":0.00011056,"MEAN_MOTION_DDOT":0}]
